0 COSMOS 2251 DEB
1 34141U 93036LN  13281.85781170  .00001346  00000-0  59729-3 0  2101
2 34141 074.0214 212.7529 0078876 269.4712 145.5355 14.22373983240891
0 COSMOS 2251 DEB
1 34141U 93036LN  13283.13791759  .00001465  00000-0  64879-3 0  2113
2 34141 074.0216 210.4521 0078799 266.8938 220.3612 14.22382498241075
0 COSMOS 2251 DEB
1 34141U 93036LN  13284.19149185  .00001688  00000-0  74588-3 0  2126
2 34141 074.0217 208.5585 0078765 264.7783 215.2448 14.22385303241227
0 COSMOS 2251 DEB
1 34141U 93036LN  13285.24719868  .00001515  00000-0  67087-3 0  2130
2 34141 074.0218 206.6612 0078576 262.6555 221.0636 14.22387694241377
0 COSMOS 2251 DEB
1 34141U 93036LN  13287.14564918  .00002153  00000-0  94848-3 0  2140
2 34141 074.0224 203.2508 0078626 258.7798 222.3023 14.22391663241647
0 COSMOS 2251 DEB
1 34141U 93036LN  13288.20700975  .00002838  00000-0  12463-2 0  2156
2 34141 074.0225 201.3433 0078558 256.6462 257.1045 14.22397537241795
0 COSMOS 2251 DEB
1 34141U 93036LN  13289.81124222  .00002411  00000-0  10604-2 0  2162
2 34141 074.0225 198.4603 0078482 253.4240 191.7722 14.22406685242022
0 COSMOS 2251 DEB
1 34141U 93036LN  13290.86263292  .00002146  00000-0  94499-3 0  2171
2 34141 074.0223 196.5709 0078363 251.3057 175.5798 14.22411606242175
0 COSMOS 2251 DEB
1 34141U 93036LN  13292.47762294  .00002041  00000-0  89947-3 0  2183
2 34141 074.0219 193.6688 0078256 248.0493 165.4252 14.22417991242404
0 COSMOS 2251 DEB
1 34141U 93036LN  13293.82072167  .00002078  00000-0  91553-3 0  2193
2 34141 074.0214 191.2550 0078172 245.3043 203.0676 14.22423084242598
0 COSMOS 2251 DEB
1 34141U 93036LN  13295.16327939  .00002459  00000-0  10811-2 0  2204
2 34141 074.0212 188.8419 0078067 242.5576 237.9694 14.22426869242786
